STARLINK-2146
1 17735C 21017P   21326.12117857  .00000336  00000-0  22523-4 0  3267
2 17735  53.0528 338.1796 0001376  68.6578  36.2654 15.06395332    19
